      2.10          N: GNSS NAV DATA                        RINEX VERSION / TYPE
fic2rin                                 08/15/2019 00:19:12 PGM / RUN BY / DATE
                                                            END OF HEADER
 4 19  8 14  6  0  0.0 9.272387251258e-05 4.479261406232e-11 0.000000000000e+00
    2.800000000000e+01 1.139687500000e+02 4.536617539759e-09-1.058916862606e+00
    6.003305315971e-06 1.465201890096e-02 4.459172487259e-06 5.153678863525e+03
    2.808000000000e+05 3.837049007416e-07 7.674160972522e-01 8.195638656616e-08
    9.588896165729e-01 2.938437500000e+02 6.755222690483e-01-8.283202171476e-09
    1.589351917173e-10 1.000000000000e+00 2.066000000000e+03 0.000000000000e+00
    2.400000000000e+00 6.300000000000e+01-5.587935447693e-09 2.800000000000e+01
    2.736000000000e+05 4.000000000000e+00
10 19  8 14  6  0  0.0-1.361733302474e-05-1.409716787748e-11 0.000000000000e+00
    1.900000000000e+01-8.103125000000e+01 4.043739866568e-09 9.141534807675e-01
   -4.228204488754e-06 4.736740374938e-03 1.133233308792e-05 5.153673706055e+03
    2.808000000000e+05-1.005828380585e-07 2.964859404672e+00 1.117587089539e-07
    9.639653220306e-01 1.636875000000e+02-2.720074296390e+00-7.742108204169e-09
    1.550064566411e-10 1.000000000000e+00 2.066000000000e+03 0.000000000000e+00
    2.400000000000e+00 0.000000000000e+00 1.862645149231e-09 1.900000000000e+01
    2.736000000000e+05 4.000000000000e+00
 9 19  8 14  6  0  0.0-6.124377250671e-06-8.867573342286e-12 0.000000000000e+00
    9.000000000000e+01 2.668750000000e+01 4.960563770249e-09-7.672633495868e-01
    1.307576894760e-06 1.281789736822e-03 7.545575499535e-06 5.153613716125e+03
    2.808000000000e+05 0.000000000000e+00-2.283624971563e+00-1.303851604462e-08
    9.524716559819e-01 2.351250000000e+02 1.704517507882e+00-8.134267396316e-09
    6.057395171966e-10 1.000000000000e+00 2.066000000000e+03 0.000000000000e+00
    2.400000000000e+00 0.000000000000e+00 1.396983861923e-09 9.000000000000e+01
    2.736000000000e+05 4.000000000000e+00
22 19  8 14  6  0  0.0-7.435716688633e-04-4.433786671143e-12 0.000000000000e+00
    3.000000000000e+01-9.500000000000e+01 4.780199114480e-09-2.063668865874e+00
   -4.736706614494e-06 7.020061952062e-03 1.060217618942e-05 5.153743297577e+03
    2.808000000000e+05 7.078051567078e-08 2.892141740718e+00 1.620501279831e-07
    9.285320593045e-01 1.533750000000e+02-1.300908629758e+00-8.059621429869e-09
    1.550064566411e-10 1.000000000000e+00 2.066000000000e+03 0.000000000000e+00
    2.400000000000e+00 0.000000000000e+00-1.816079020500e-08 3.000000000000e+01
    2.736000000000e+05 4.000000000000e+00
11 19  8 14  6  0  0.0-5.356073379517e-04 1.011812855722e-11 0.000000000000e+00
    5.200000000000e+01 1.231250000000e+01 5.736667526657e-09 2.187640066618e+00
    6.128102540970e-07 1.677525078412e-02-9.927898645401e-07 5.153723079681e+03
    2.808000000000e+05 2.067536115646e-07 1.469876653920e+00 8.940696716309e-08
    9.099888660603e-01 3.668437500000e+02 1.925318852527e+00-8.778579948806e-09
   -1.364342544629e-10 1.000000000000e+00 2.066000000000e+03 0.000000000000e+00
    2.400000000000e+00 0.000000000000e+00-1.210719347000e-08 5.200000000000e+01
    2.736000000000e+05 4.000000000000e+00
25 19  8 14  6  0  0.0-7.221009582281e-06-2.160049916711e-12 0.000000000000e+00
    1.800000000000e+01 5.240625000000e+01 4.165530653929e-09 1.223573854442e+00
    2.792105078697e-06 8.376890094951e-03 1.105852425098e-05 5.153680391312e+03
    2.808000000000e+05-1.322478055954e-07-1.715687501842e-01 1.266598701477e-07
    9.695948048869e-01 1.719062500000e+02 9.007116949889e-01-7.821754378894e-09
   -3.628722579432e-10 1.000000000000e+00 2.066000000000e+03 0.000000000000e+00
    2.400000000000e+00 0.000000000000e+00 5.587935447693e-09 1.800000000000e+01
    2.736000000000e+05 4.000000000000e+00
15 19  8 14  6  0  0.0-2.942602150142e-04 2.614797267597e-12 0.000000000000e+00
    1.800000000000e+01 3.190625000000e+01 5.388081578082e-09-2.064876838294e+00
    1.311302185059e-06 1.157691958360e-02 7.236376404762e-06 5.153736074448e+03
    2.808000000000e+05 1.043081283569e-07-2.365682221989e+00-9.499490261078e-08
    9.280585756277e-01 2.175000000000e+02 7.972749750058e-01-8.236771666030e-09
    7.275303045574e-10 1.000000000000e+00 2.066000000000e+03 0.000000000000e+00
    2.400000000000e+00 0.000000000000e+00-1.071020960808e-08 1.800000000000e+01
    2.736000000000e+05 4.000000000000e+00
21 19  8 14  6  0  0.0-1.367693766952e-04 6.707523425575e-12 0.000000000000e+00
    2.000000000000e+01-7.356250000000e+01 5.034852578962e-09 1.079651820198e+00
   -4.410743713379e-06 2.449962252285e-02 2.468004822731e-06 5.153679691315e+03
    2.808000000000e+05-2.235174179077e-07 1.859641066361e+00-5.401670932770e-07
    9.492547430131e-01 3.309062500000e+02-1.422057990263e+00-8.801795201528e-09
   -2.489389407347e-10 1.000000000000e+00 2.066000000000e+03 0.000000000000e+00
    2.400000000000e+00 0.000000000000e+00-1.024454832077e-08 2.000000000000e+01
    2.736000000000e+05 4.000000000000e+00
31 19  8 14  6  0  0.0 1.747952774167e-05-2.614797267597e-12 0.000000000000e+00
    1.600000000000e+01-2.156250000000e+01 5.030209528418e-09 1.993480509745e+00
   -9.164214134216e-07 9.277533972636e-03 6.360933184624e-06 5.153662988663e+03
    2.808000000000e+05-1.117587089539e-08-1.193203202594e+00 2.570450305939e-07
    9.590617756983e-01 2.573125000000e+02 1.654615060787e-02-8.172126116141e-09
   -4.614477925813e-10 1.000000000000e+00 2.066000000000e+03 0.000000000000e+00
    2.400000000000e+00 0.000000000000e+00-1.350417733192e-08 1.600000000000e+01
    2.736000000000e+05 4.000000000000e+00
30 19  8 14  6  0  0.0-1.924671232700e-05-7.730704965070e-12 0.000000000000e+00
    4.600000000000e+01-2.765625000000e+01 5.480585431239e-09 2.256917833778e+00
   -1.356005668640e-06 4.193062544800e-03 5.941838026047e-06 5.153762414932e+03
    2.808000000000e+05-1.098960638046e-07-1.180570552416e+00 5.029141902924e-08
    9.399698228646e-01 2.564687500000e+02-2.910142614138e+00-8.409993167115e-09
   -3.646580466142e-10 1.000000000000e+00 2.066000000000e+03 0.000000000000e+00
    2.400000000000e+00 0.000000000000e+00 3.725290298462e-09 4.600000000000e+01
    2.736000000000e+05 4.000000000000e+00
26 19  8 14  6  0  0.0 1.464737579226e-05 8.981260180008e-12 0.000000000000e+00
    2.300000000000e+01 5.462500000000e+01 4.554118268734e-09 6.978027264445e-01
    2.900138497353e-06 3.798534628004e-03 1.105852425098e-05 5.153658441544e+03
    2.808000000000e+05 1.490116119385e-08-2.015525216430e-01-1.490116119385e-08
    9.508204208470e-01 1.566875000000e+02 1.400459845174e-01-7.956402844686e-09
   -4.560904265684e-10 1.000000000000e+00 2.066000000000e+03 0.000000000000e+00
    2.400000000000e+00 0.000000000000e+00 7.450580596924e-09 2.300000000000e+01
    2.736000000000e+05 4.000000000000e+00
28 19  8 14  6  0  0.0 7.647816091776e-04-6.821210263297e-13 0.000000000000e+00
    3.800000000000e+01 6.159375000000e+01 3.983380209489e-09-3.627541668071e-01
    3.321096301079e-06 1.901619997807e-02 1.121312379837e-05 5.153709260941e+03
    2.808000000000e+05-2.384185791016e-07-8.350457233490e-02 2.793967723846e-08
    9.815145589925e-01 1.791562500000e+02-1.460778764922e+00-7.973546415928e-09
   -2.117945363783e-10 1.000000000000e+00 2.066000000000e+03 0.000000000000e+00
    3.400000000000e+00 0.000000000000e+00-1.117587089539e-08 3.800000000000e+01
    2.736000000000e+05 4.000000000000e+00
16 19  8 14  6  0  0.0-6.482703611255e-05-3.296918293927e-12 0.000000000000e+00
    8.000000000000e+01 7.418750000000e+01 3.818016178556e-09-2.351425602543e-01
    3.835186362267e-06 1.075102959294e-02 1.109018921852e-05 5.153627256393e+03
    2.808000000000e+05 3.911554813385e-08-8.741950203601e-02 1.136213541031e-07
    9.825509823237e-01 1.760937500000e+02 5.811456903878e-01-7.728536210269e-09
   -3.396570052205e-10 1.000000000000e+00 2.066000000000e+03 0.000000000000e+00
    2.400000000000e+00 0.000000000000e+00-1.071020960808e-08 8.000000000000e+01
    2.736000000000e+05 4.000000000000e+00
24 19  8 14  6  0  0.0-7.636845111847e-07-5.684341886081e-13 0.000000000000e+00
    1.090000000000e+02-2.303125000000e+01 5.433440610325e-09-3.071471095763e+00
   -1.275911927223e-06 8.509052335285e-03 5.707144737244e-06 5.153698938370e+03
    2.808000000000e+05-1.136213541031e-07-1.274891251995e+00-1.583248376846e-07
    9.376897626338e-01 2.582812500000e+02 6.020785807953e-01-8.297131323109e-09
   -3.078699668770e-10 1.000000000000e+00 2.066000000000e+03 0.000000000000e+00
    3.400000000000e+00 0.000000000000e+00 2.793967723846e-09 1.090000000000e+02
    2.736000000000e+05 4.000000000000e+00
13 19  8 14  6  0  0.0-4.977406933904e-05 1.932676241267e-12 0.000000000000e+00
    8.300000000000e+01 2.700000000000e+01 4.661979904461e-09-2.090625360972e+00
    1.335516571999e-06 3.633656306192e-03 6.420537829399e-06 5.153661167145e+03
    2.808000000000e+05 4.470348358154e-08-2.145164818039e+00 1.117587089539e-08
    9.677262123097e-01 2.566875000000e+02 1.227750152013e+00-7.971760627257e-09
    5.443083869148e-10 1.000000000000e+00 2.066000000000e+03 0.000000000000e+00
    2.400000000000e+00 0.000000000000e+00-1.117587089539e-08 8.300000000000e+01
    2.736000000000e+05 4.000000000000e+00
27 19  8 14  6  0  0.0-2.339482307434e-05-1.148237060988e-11 0.000000000000e+00
    9.900000000000e+01 1.063437500000e+02 4.134100773320e-09-1.189255442086e+00
    5.543231964111e-06 7.161362795159e-03 4.090368747711e-06 5.153651311874e+03
    2.808000000000e+05 1.937150955200e-07 8.701627148898e-01-9.872019290924e-08
    9.785772711113e-01 3.125625000000e+02 5.186291502315e-01-8.066050269084e-09
    1.853648640478e-10 1.000000000000e+00 2.066000000000e+03 0.000000000000e+00
    2.400000000000e+00 0.000000000000e+00 1.396983861923e-09 9.900000000000e+01
    2.736000000000e+05 4.000000000000e+00
